STARLINK-11477 [DTC]    
1 62471C 24254K   26113.16298611 -.00005099  00000+0 -39583-4 0  1138
2 62471  43.0004 314.7018 0001900 267.7378 251.1043 15.70852645    17
STARLINK-11500 [DTC]    
1 62472C 24254L   26113.15812500  .00023078  00000+0  17912-3 0  1133
2 62472  43.0004 314.6551 0001702 269.9196 251.4663 15.70843301    11
STARLINK-11464 [DTC]    
1 62473C 24254M   26113.11715278  .00066470  00000+0  51615-3 0  1135
2 62473  43.0006 315.3507 0001664 277.7018 191.3590 15.70811214    19
STARLINK-11502 [DTC]    
1 62474C 24254N   26113.16784722  .00012860  00000+0  99865-4 0  1135
2 62474  43.0006 314.8198 0001754 272.8628 213.3895 15.70836703    16
STARLINK-32657          
1 62475C 24254P   26113.11229167 -.00008633  00000+0 -31271-3 0  1139
2 62475  42.9999 128.7976 0001351 263.7888 280.3841 15.27581352    16
STARLINK-32734          
1 62476C 24254Q   26113.09006944  .00000144  00000+0  51982-5 0  1133
2 62476  43.0009 125.7648 0001613 266.0488  25.7612 15.27575659    17
STARLINK-32733          
1 62477C 24254R   26113.10534722 -.00008260  00000+0 -29926-3 0  1136
2 62477  42.9991 125.1531 0001316 265.3216 329.9520 15.27573158    11
STARLINK-32707          
1 62478C 24254S   26113.12618056 -.00015876  00000+0 -57522-3 0  1136
2 62478  43.0025 125.4235 0001362 264.0824 283.1621 15.27576338    14
STARLINK-32705          
1 62479C 24254T   26113.14145833 -.00019332  00000+0 -70039-3 0  1136
2 62479  42.9994 117.7536 0001464 260.5871 288.3317 15.27579691    16
STARLINK-32743          
1 62480C 24254U   26113.14631944 -.00021484  00000+0 -77833-3 0  1131
2 62480  42.9998 124.8214 0001230 259.8036 243.4621 15.27581762    11
STARLINK-32753          
1 62481C 24254V   26113.09631944 -.00008269  00000+0 -29951-3 0  1130
2 62481  43.0006 125.3074 0001268 265.3819 237.7146 15.27580948    19
STARLINK-32699          
1 62482C 24254W   26113.08798611  .00000076  00000+0  27398-5 0  1136
2 62482  42.9991 128.8463 0001270 265.3233 180.4043 15.27574699    10
STARLINK-32713          
1 62487C 25003A   26113.11368056 -.00013773  00000+0 -49898-3 0  1131
2 62487  43.0041  38.1595 0001255 268.4649 135.9787 15.27577709    15
STARLINK-32732          
1 62488C 25003B   26113.08868056 -.00042581  00000+0 -15425-2 0  1130
2 62488  43.0009  37.8533 0001343 260.3699 190.3564 15.27594868    15
STARLINK-32328          
1 62489C 25003C   26113.18104167  .00006069  00000+0  21987-3 0  1138
2 62489  43.0046  37.9763 0001353 272.8762  57.5752 15.27565810    11
STARLINK-32332          
1 62490C 25003D   26113.16715278  .00023707  00000+0  85904-3 0  1136
2 62490  43.0045  37.9055 0001416 277.6095  40.0259 15.27552646    10
STARLINK-32717          
1 62491C 25003E   26113.10465278 -.00051369  00000+0 -18611-2 0  1130
2 62491  43.0025  38.0072 0001251 276.2521 163.4036 15.27595440    18
STARLINK-32757          
1 62492C 25003F   26113.11159722 -.00037452  00000+0 -13572-2 0  1134
2 62492  43.0044  38.2987 0001250 276.3970  60.0065 15.27579847    12
STARLINK-32731          
1 62493C 25003G   26113.09493056 -.00038510  00000+0 -13954-2 0  1133
2 62493  43.0025  38.5655 0001239 275.9686 257.9103 15.27584457    16
STARLINK-32694          
1 62494C 25003H   26113.14562500  .00012856  00000+0  46584-3 0  1130
2 62494  43.0015  37.6325 0001092 271.8204  90.0074 15.27558817    12
STARLINK-32708          
1 62495C 25003J   26113.08520833 -.00096531  00000+0 -34984-2 0  1131
2 62495  43.0042  38.3996 0000906 276.3817 295.9760 15.27607640    15
STARLINK-32718          
1 62496C 25003K   26113.17548611  .00025381  00000+0  91961-3 0  1138
2 62496  43.0012  37.4186 0001299 275.5542 271.9047 15.27555157    13
STARLINK-32729          
1 62497C 25003L   26113.18034722  .00042675  00000+0  15461-2 0  1138
2 62497  43.0022  37.4845 0001358 274.3113 257.4637 15.27549187    14
STARLINK-32739          
1 62498C 25003M   26113.08520833 -.00192630  00000+0 -69767-2 0  1138
2 62498  43.0036  38.2273 0001139 279.7060   3.4264 15.27675453    12
STARLINK-32714          
1 62499C 25003N   26113.17895833 -.00006192  00000+0 -22437-3 0  1135
2 62499  43.0031  38.0763 0001499 277.7119   5.8830 15.27568237    18
STARLINK-32685          
1 62500C 25003P   26113.14979167 -.00007453  00000+0 -27004-3 0  1134
2 62500  43.0045  38.1368 0001283 274.2428 251.2187 15.27572915    14
STARLINK-32691          
1 62501C 25003Q   26113.09979167 -.00028805  00000+0 -10437-2 0  1134
2 62501  43.0035  38.1267 0001393 272.3580  98.0906 15.27580497    12
STARLINK-32788          
1 62502C 25003R   26113.09493056 -.00017192  00000+0 -62292-3 0  1137
2 62502  43.0026  38.1088 0001137 271.6256  93.2630 15.27575704    18
STARLINK-32768          
1 62503C 25003S   26113.12409722 -.00026743  00000+0 -96897-3 0  1139
2 62503  43.0011  37.7187 0001491 276.3860 341.0776 15.27579507    14
STARLINK-32792          
1 62504C 25003T   26113.14770833  .00002438  00000+0  88329-4 0  1131
2 62504  43.0020  37.4631 0001338 266.3400 170.6316 15.27565064    14
STARLINK-32725          
1 62505C 25003U   26113.17479167  .00139770  00000+0  50646-2 0  1130
2 62505  43.0014  37.3147 0001584 267.7428 311.1938 15.27493793    18
STARLINK-32681          
1 62506C 25003V   26113.12826389  .00030312  00000+0  10982-2 0  1139
2 62506  43.0025  19.4560 0001515 274.1053 219.7455 15.27555045    17
STARLINK-32679          
1 62507C 25003W   26113.11090278 -.00020889  00000+0 -75690-3 0  1137
2 62507  43.0022  38.4691 0001408 274.6813 333.0210 15.27575596    13
STARLINK-32749          
1 62508C 25003X   26113.17270833  .00074566  00000+0  27030-2 0  1134
2 62508  43.0029  37.5806 0001474 279.9564 188.4805 15.27514613    18
STARLINK-32744          
1 62509C 25003Y   26113.11784722 -.00029748  00000+0 -10780-2 0  1134
2 62509  43.0041  38.3697 0001310 274.5739  53.7838 15.27578531    13
STARLINK-32701          
1 62510C 25003Z   26113.10187500 -.00006794  00000+0 -24613-3 0  1133
2 62510  43.0037  38.1685 0001313 273.6338  87.0303 15.27574991    16
STARLINK-11452 [DTC]    
1 62511C 25004A   26113.09770833  .00072778  00000+0  56538-3 0  1134
2 62511  43.0001 163.0263 0001579 250.2565  89.1963 15.70797610    13
STARLINK-11443 [DTC]    
1 62512C 25004B   26113.16923611  .00057373  00000+0  44555-3 0  1137
2 62512  43.0006 163.0444 0001622 260.3419 303.7259 15.70813403    11
STARLINK-11440 [DTC]    
1 62513C 25004C   26113.13937500  .00054280  00000+0  42154-3 0  1134
2 62513  43.0005 162.9992 0001369 267.0796 218.0964 15.70814839    12
STARLINK-11514 [DTC]    
1 62514C 25004D   26113.14493056  .00064883  00000+0  50387-3 0  1136
2 62514  43.0003 162.6790 0001356 251.7763  19.9385 15.70810590    19
STARLINK-11508 [DTC]    
1 62515C 25004E   26113.17062500  .00056837  00000+0  44142-3 0  1138
2 62515  43.0004 162.4363 0001329 266.4681 185.9565 15.70812952    15
STARLINK-11510 [DTC]    
1 62516C 25004F   26113.10673611  .00077046  00000+0  59855-3 0  1135
2 62516  43.0004 163.2688 0001365 255.7518  14.5790 15.70795671    10
STARLINK-11512 [DTC]    
1 62517C 25004G   26113.08590278  .00065843  00000+0  51153-3 0  1135
2 62517  43.0006 162.7211 0001455 273.8865 149.0363 15.70800439    14
STARLINK-11450 [DTC]    
1 62518C 25004H   26113.15187500  .00055436  00000+0  43067-3 0  1136
2 62518  43.0003 162.7717 0001462 271.5321 344.5596 15.70805903    14
STARLINK-11507 [DTC]    
1 62519C 25004J   26113.10187500  .00068803  00000+0  53452-3 0  1133
2 62519  43.0004 163.1468 0001522 271.9119  31.0200 15.70798920    10
STARLINK-11482 [DTC]    
1 62520C 25004K   26113.11020833  .00057622  00000+0  44771-3 0  1132
2 62520  43.0003 162.6478 0001413 259.1804 271.3119 15.70801601    13
STARLINK-11528 [DTC]    
1 62521C 25004L   26113.14145833  .00066575  00000+0  51715-3 0  1137
2 62521  43.0007 163.1285 0001385 262.7716 174.0944 15.70802996    13
STARLINK-11516 [DTC]    
1 62522C 25004M   26113.13243056  .00059147  00000+0  45943-3 0  1136
2 62522  43.0003 162.7371 0001151 263.3640 302.7493 15.70808206    14
STARLINK-11527 [DTC]    
1 62523C 25004N   26113.08659722  .00056676  00000+0  44038-3 0  1130
2 62523  43.0003 162.8631 0001506 256.9760 109.7725 15.70800594    15
STARLINK-32748          
1 62524C 25004P   26113.17687500  .00012774  00000+0  46271-3 0  1138
2 62524  43.0027 328.4570 0001447 269.2359 118.3339 15.27568637    17
STARLINK-32777          
1 62525C 25004Q   26113.17479167  .00017345  00000+0  62829-3 0  1133
2 62525  43.0004 328.9938 0001551 270.5302 246.2545 15.27566169    13
STARLINK-32741          
1 62526C 25004R   26113.11923611  .00040384  00000+0  14628-2 0  1138
2 62526  43.0006 325.6985 0001588 266.4074   5.5074 15.27556102    11
STARLINK-32754          
1 62527C 25004S   26113.16993056  .00011710  00000+0  42414-3 0  1130
2 62527  43.0035 328.7001 0001616 276.9340 347.4831 15.27571821    15
STARLINK-32786          
1 62528C 25004T   26113.12201389  .00041466  00000+0  15010-2 0  1130
2 62528  43.0016 328.5305 0001447 273.8530 270.6486 15.27576564    11
STARLINK-32789          
1 62529C 25004U   26113.10604167  .00054195  00000+0  19633-2 0  1138
2 62529  43.0034 329.1421 0001658 269.5238 327.7971 15.27545734    17
STARLINK-32791          
1 62530C 25004V   26113.09909722  .00053395  00000+0  19343-2 0  1132
2 62530  43.0034 328.9936 0001447 275.0642   1.8294 15.27546446    13
STARLINK-32785          
1 62531C 25004W   26113.14006944  .00039236  00000+0  14213-2 0  1132
2 62531  43.0024 329.0582 0001695 267.6838 114.5245 15.27554015    10
STARLINK-11538 [DTC]    
1 62554C 25006A   26113.11229167 -.00089189  00000+0 -69268-3 0  1135
2 62554  43.0005 231.7693 0001628 263.3265  72.4747 15.70884504    15
STARLINK-11534 [DTC]    
1 62555C 25006B   26113.13451389 -.00055226  00000+0 -42911-3 0  1132
2 62555  43.0005 231.7096 0001536 259.9805 171.5926 15.70856154    12
STARLINK-11515 [DTC]    
